0 FENGYUN 1C DEB
1 30491U 99025AHD 13282.49615550  .00007072  00000-0  33576-2 0  5283
2 30491 101.5394 281.7441 0040960 006.1502 143.9286 14.19484025345937
0 FENGYUN 1C DEB
1 30491U 99025AHD 13283.82979346  .00007670  00000-0  36379-2 0  5296
2 30491 101.5396 283.4770 0040916 002.6814 119.0352 14.19494385346121
0 FENGYUN 1C DEB
1 30491U 99025AHD 13285.22689964  .00005743  00000-0  27319-2 0  5301
2 30491 101.5393 285.2927 0040880 359.0681 058.5224 14.19510718346329
0 FENGYUN 1C DEB
1 30491U 99025AHD 13286.85983919  .00006130  00000-0  29130-2 0  5313
2 30491 101.5389 287.4149 0040824 354.8038 123.3102 14.19527865346553
0 FENGYUN 1C DEB
1 30491U 99025AHD 13288.18821881  .00009981  00000-0  47184-2 0  5327
2 30491 101.5384 289.1414 0040757 351.3044 071.8209 14.19546946346743
0 FENGYUN 1C DEB
1 30491U 99025AHD 13289.53910508  .00007853  00000-0  37189-2 0  5333
2 30491 101.5382 290.8971 0040716 347.8001 135.3888 14.19567065346931
0 FENGYUN 1C DEB
1 30491U 99025AHD 13291.51971069  .00006843  00000-0  32436-2 0  5342
2 30491 101.5382 293.4710 0040641 342.6096 177.2885 14.19592416347217
0 FENGYUN 1C DEB
1 30491U 99025AHD 13292.85110105  .00007345  00000-0  34780-2 0  5359
2 30491 101.5384 295.2010 0040602 339.0827 141.5148 14.19607705347406
0 FENGYUN 1C DEB
1 30491U 99025AHD 13293.96802729  .00007809  00000-0  36948-2 0  5366
2 30491 101.5387 296.6526 0040578 336.1677 089.7107 14.19621974347568
0 FENGYUN 1C DEB
1 30491U 99025AHD 13295.23497998  .00008348  00000-0  39458-2 0  5375
2 30491 101.5391 298.2991 0040557 332.8549 084.7110 14.19638670347745
